OBJECT_NAME,OBJECT_ID,EPOCH,MEAN_MOTION,ECCENTRICITY,INCLINATION,RA_OF_ASC_NODE,ARG_OF_PERICENTER,MEAN_ANOMALY,EPHEMERIS_TYPE,CLASSIFICATION_TYPE,NORAD_CAT_ID,ELEMENT_SET_NO,REV_AT_EPOCH,BSTAR,MEAN_MOTION_DOT,MEAN_MOTION_DDOT
STARLINK-11479 [DTC],2024-237D,2026-06-15T08:45:40.758048,15.70913585,.00011704,43.0004,187.8924,237.6332,122.4423,0,U,62270,999,8841,.1174286E-2,.153515E-2,0
STARLINK-11489 [DTC],2024-237E,2026-06-15T08:07:38.835552,15.70928669,.00006673,42.9975,188.5775,225.1255,134.9558,0,U,62271,999,8840,.13527966E-2,.177552E-2,0
STARLINK-11494 [DTC],2024-237F,2026-06-14T08:43:39.777312,15.70930509,.00009655,42.9988,194.1544,223.9239,136.1552,0,U,62272,999,8820,.11258781E-2,.14716E-2,0
STARLINK-11333 [DTC],2024-237G,2026-06-14T08:58:59.081952,15.70851010,.00016811,43.0014,194.2398,258.8405,101.2274,0,U,62273,999,8825,.11433377E-2,.148985E-2,0
STARLINK-11504 [DTC],2024-237H,2026-06-15T04:26:17.888928,15.70935916,.00039027,43.0016,189.1309,290.7863,69.2586,0,U,62274,999,8833,.9210964E-3,.119976E-2,0
STARLINK-11495 [DTC],2024-237J,2026-06-15T08:15:17.548704,15.70880389,.00028666,43.0032,188.6186,271.2435,88.8104,0,U,62275,999,8835,.14857026E-2,.195073E-2,0
STARLINK-11498 [DTC],2024-237K,2026-06-14T18:54:00.292896,15.70942205,.00018322,43.0010,191.2995,270.4766,89.5892,0,U,62276,999,8832,.11128522E-2,.145497E-2,0
STARLINK-11484 [DTC],2024-237L,2026-06-14T08:28:22.278432,15.70951945,.00024456,42.9987,194.0662,240.8685,119.1938,0,U,62277,999,8825,.1696874E-2,.224322E-2,0
STARLINK-11487 [DTC],2024-237M,2026-06-15T07:59:59.913312,15.70940210,.00020549,42.9984,188.5318,270.4300,89.6332,0,U,62278,999,8840,.88066343E-3,.114609E-2,0
STARLINK-11499 [DTC],2024-237N,2026-06-14T18:32:33.293184,15.70912799,.00031173,43.0016,192.0726,266.6316,93.4195,0,U,62279,999,8824,.10462087E-2,.136455E-2,0
STARLINK-33548,2024-237P,2026-06-15T06:52:57.563904,15.27579404,.00009644,43.0100,14.3268,283.9519,76.1226,0,U,62280,999,8624,.66426974E-3,.18061E-3,0
STARLINK-33544,2024-237Q,2026-06-14T21:11:20.665248,15.27580808,.0006161,43.0036,27.7022,275.9780,84.0370,0,U,62281,999,8605,.54511357E-3,.14774E-3,0
STARLINK-33560,2024-237R,2026-06-15T07:44:31.623072,15.27599031,.0001562,43.0040,24.9790,272.1166,87.9507,0,U,62282,999,8603,.69158635E-3,.18828E-3,0
STARLINK-33547,2024-237S,2026-06-15T00:00:04.000320,15.27522482,.00017798,43.0028,15.8952,286.0580,316.5996,0,U,62283,999,587,.24946196E-2,.68907E-3,0
STARLINK-33563,2024-237T,2026-06-15T07:53:46.708512,15.27584504,.00023552,43.0082,25.0253,268.7150,91.3432,0,U,62284,999,8612,.48512182E-3,.13113E-3,0
STARLINK-33550,2024-237U,2026-06-14T22:14:02.340672,15.27612716,.0000843,43.0154,27.1634,62.6879,297.4058,0,U,62285,999,8606,.79363E-3,.21662E-3,0
STARLINK-33564,2024-237V,2026-06-15T07:59:20.533920,15.27583899,.00006057,42.9951,25.0573,239.7618,120.3173,0,U,62286,999,8612,.59493379E-3,.16147E-3,0
STARLINK-33546,2024-237W,2026-06-15T07:48:12.750912,15.27589119,.00047086,43.0067,24.9970,267.3095,92.7217,0,U,62287,999,8603,.69879324E-3,.19026E-3,0
STARLINK-33565,2024-237X,2026-06-14T20:39:54.241344,15.27593855,.00025083,42.9985,16.2861,275.9585,84.0981,0,U,62288,999,8618,.87478321E-3,.23899E-3,0
STARLINK-33549,2024-237Y,2026-06-15T08:04:53.347584,15.27614897,.00019158,43.0041,25.0870,274.9797,85.0836,0,U,62289,999,8612,.59639116E-3,.16203E-3,0
GJZ 01,2024-238A,2026-06-15T14:23:30.433920,13.75220149,.0013214,59.9143,291.4644,239.8423,120.1276,0,U,62290,999,7538,.22832761E-4,-.97E-6,0
GJZ 02,2024-238B,2026-06-15T14:24:15.502752,13.75205348,.00069688,59.9175,255.5801,92.5896,267.5910,0,U,62291,999,7606,.84052658E-4,-.38E-6,0
GJZ 03,2024-238C,2026-06-15T14:22:49.461312,13.75206902,.00180308,59.9139,275.8221,0.8435,359.2600,0,U,62292,999,7567,.92961884E-4,-.3E-6,0
GJZ 04,2024-238D,2026-06-15T14:29:01.454784,13.75199581,.00140972,59.9140,275.8471,14.1626,345.9775,0,U,62293,999,7569,.93803774E-4,-.29E-6,0
GJZ 05,2024-238E,2026-06-15T14:26:00.408768,13.75191642,.00156761,59.9122,275.7779,12.1859,347.9525,0,U,62294,999,7569,.83602176E-4,-.39E-6,0
STARLINK-32648,2024-239A,2026-06-15T01:42:56.554560,15.34397370,.00012339,53.1603,88.8022,77.9315,282.1826,0,U,62301,999,8447,.71212957E-3,.23758E-3,0
STARLINK-32594,2024-239B,2026-06-15T02:16:22.013472,15.34397773,.00012799,53.1594,98.7410,80.2175,279.8972,0,U,62302,999,8433,.91704443E-3,.30732E-3,0
STARLINK-32621,2024-239C,2026-06-15T12:17:22.534368,15.30201645,.00011039,53.1602,86.5714,104.8330,255.2793,0,U,62303,999,8454,.62780376E-3,.18281E-3,0
STARLINK-32597,2024-239D,2026-06-15T11:19:47.471808,15.30208279,.00013011,53.1586,87.0329,76.7900,283.3246,0,U,62304,999,8453,.58355269E-3,.16968E-3,0
STARLINK-32649,2024-239E,2026-06-15T12:43:28.361568,15.34398367,.00008484,53.1624,98.7649,93.8499,266.2601,0,U,62305,999,8437,.71899562E-3,.23993E-3,0
