STARLINK-11479 [DTC]    
1 62270U 24237D   26166.36505507  .00153515  00000+0  11743-2 0  9994
2 62270  43.0004 187.8924 0001170 237.6332 122.4423 15.70913585 88417
STARLINK-11489 [DTC]    
1 62271U 24237E   26166.33864393  .00177552  00000+0  13528-2 0  9993
2 62271  42.9975 188.5775 0000667 225.1255 134.9558 15.70928669 88406
STARLINK-11494 [DTC]    
1 62272U 24237F   26165.36365483  .00147160  00000+0  11259-2 0  9993
2 62272  42.9988 194.1544 0000965 223.9239 136.1552 15.70930509 88209
STARLINK-11333 [DTC]    
1 62273U 24237G   26165.37429493  .00148985  00000+0  11433-2 0  9997
2 62273  43.0014 194.2398 0001681 258.8405 101.2274 15.70851010 88256
STARLINK-11504 [DTC]    
1 62274U 24237H   26166.18492927  .00119976  00000+0  92110-3 0  9990
2 62274  43.0016 189.1309 0003902 290.7863  69.2586 15.70935916 88331
STARLINK-11495 [DTC]    
1 62275U 24237J   26166.34395311  .00195073  00000+0  14857-2 0  9991
2 62275  43.0032 188.6186 0002866 271.2435  88.8104 15.70880389 88352
STARLINK-11498 [DTC]    
1 62276U 24237K   26165.78750339  .00145497  00000+0  11129-2 0  9998
2 62276  43.0010 191.2995 0001832 270.4766  89.5892 15.70942205 88322
STARLINK-11484 [DTC]    
1 62277U 24237L   26165.35303563  .00224322  00000+0  16969-2 0  9997
2 62277  42.9987 194.0662 0002445 240.8685 119.1938 15.70951945 88252
STARLINK-11487 [DTC]    
1 62278U 24237M   26166.33333233  .00114609  00000+0  88066-3 0  9998
2 62278  42.9984 188.5318 0002054 270.4300  89.6332 15.70940210 88404
STARLINK-11499 [DTC]    
1 62279U 24237N   26165.77260756  .00136455  00000+0  10462-2 0  9992
2 62279  43.0016 192.0726 0003117 266.6316  93.4195 15.70912799 88244
STARLINK-33548          
1 62280U 24237P   26166.28677736  .00018061  00000+0  66427-3 0  9996
2 62280  43.0100  14.3268 0000964 283.9519  76.1226 15.27579404 86246
STARLINK-33544          
1 62281U 24237Q   26165.88287807  .00014774  00000+0  54511-3 0  9996
2 62281  43.0036  27.7022 0006161 275.9780  84.0370 15.27580808 86054
STARLINK-33560          
1 62282U 24237R   26166.32258823  .00018828  00000+0  69159-3 0  9991
2 62282  43.0040  24.9790 0001562 272.1166  87.9507 15.27599031 86038
STARLINK-33547          
1 62283U 24237S   26166.00004630  .00068907  00000+0  24946-2 0  9999
2 62283  43.0028  15.8952 0001779 286.0580 316.5996 15.27522482  5870
STARLINK-33563          
1 62284U 24237T   26166.32901283  .00013113  00000+0  48512-3 0  9990
2 62284  43.0082  25.0253 0002355 268.7150  91.3432 15.27584504 86122
STARLINK-33550          
1 62285U 24237U   26165.92641598  .00021662  00000+0  79363-3 0  9992
2 62285  43.0154  27.1634 0000843  62.6879 297.4058 15.27612716 86061
STARLINK-33564          
1 62286U 24237V   26166.33287655  .00016147  00000+0  59493-3 0  9993
2 62286  42.9951  25.0573 0000605 239.7618 120.3173 15.27583899 86126
STARLINK-33546          
1 62287U 24237W   26166.32514758  .00019026  00000+0  69879-3 0  9998
2 62287  43.0067  24.9970 0004708 267.3095  92.7217 15.27589119 86032
STARLINK-33565          
1 62288U 24237X   26165.86104446  .00023899  00000+0  87478-3 0  9994
2 62288  42.9985  16.2861 0002508 275.9585  84.0981 15.27593855 86188
STARLINK-33549          
1 62289U 24237Y   26166.33672856  .00016203  00000+0  59639-3 0  9992
2 62289  43.0041  25.0870 0001915 274.9797  85.0836 15.27614897 86121
GJZ 01                  
1 62290U 24238A   26166.59965780 -.00000097  00000+0  22833-4 0  9996
2 62290  59.9143 291.4644 0013214 239.8423 120.1276 13.75220149 75380
GJZ 02                  
1 62291U 24238B   26166.60017943 -.00000038  00000+0  84053-4 0  9995
2 62291  59.9175 255.5801 0006968  92.5896 267.5910 13.75205348 76069
GJZ 03                  
1 62292U 24238C   26166.59918358 -.00000030  00000+0  92962-4 0  9994
2 62292  59.9139 275.8221 0018030   0.8435 359.2600 13.75206902 75673
GJZ 04                  
1 62293U 24238D   26166.60348906 -.00000029  00000+0  93804-4 0  9997
2 62293  59.9140 275.8471 0014097  14.1626 345.9775 13.75199581 75693
GJZ 05                  
1 62294U 24238E   26166.60139362 -.00000039  00000+0  83602-4 0  9998
2 62294  59.9122 275.7779 0015676  12.1859 347.9525 13.75191642 75699
STARLINK-32648          
1 62301U 24239A   26166.07148790  .00023758  00000+0  71213-3 0  9990
2 62301  53.1603  88.8022 0001233  77.9315 282.1826 15.34397370 84475
STARLINK-32594          
1 62302U 24239B   26166.09469923  .00030732  00000+0  91704-3 0  9994
2 62302  53.1594  98.7410 0001279  80.2175 279.8972 15.34397773 84334
STARLINK-32621          
1 62303U 24239C   26166.51206637  .00018281  00000+0  62780-3 0  9990
2 62303  53.1602  86.5714 0001103 104.8330 255.2793 15.30201645 84549
STARLINK-32597          
1 62304U 24239D   26166.47207722  .00016968  00000+0  58355-3 0  9995
2 62304  53.1586  87.0329 0001301  76.7900 283.3246 15.30208279 84533
STARLINK-32649          
1 62305U 24239E   26166.53018937  .00023993  00000+0  71900-3 0  9998
2 62305  53.1624  98.7649 0000848  93.8499 266.2601 15.34398367 84378
